NORAD_CAT_ID,OBJECT_NAME,OBJECT_TYPE,EPOCH,MEAN_MOTION,ECCENTRICITY,INCLINATION,RA_OF_ASC_NODE,ARG_OF_PERICENTER,MEAN_ANOMALY,BSTAR,MEAN_MOTION_DOT,MEAN_MOTION_DDOT,TLE_LINE0,TLE_LINE1,TLE_LINE2,SEMIMAJOR_AXIS,PERIOD,APOGEE,PERIGEE,DECAYED
49441.0,STARLINK-3128,PAYLOAD,2023-09-07 08:35:22,15.08842556,0.0001325,53.2172,353.7169,85.6009,274.5135,0.00011639,1.565e-05,0.0,0 STARLINK-3128,1 49441U 21104AK  23250.35789710  .00001565  00000-0  11639-3 0  9992,2 49441  53.2172 353.7169 0001325  85.6009 274.5135 15.08842556101965,6917.873,95.437,540.654,538.821,0.0
49441.0,STARLINK-3128,PAYLOAD,2023-09-07 16:32:17,15.08847984,0.0001392,53.2172,352.2259,127.4013,232.7106,0.00021744,3.175e-05,0.0,0 STARLINK-3128,1 49441U 21104AK  23250.68909163  .00003175  00000-0  21744-3 0  9991,2 49441  53.2172 352.2259 0001392 127.4013 232.7106 15.08847984100933,6917.856,95.437,540.684,538.758,0.0
49441.0,STARLINK-3128,PAYLOAD,2023-09-08 10:01:32,15.08840191,0.0001679,53.2156,348.9591,87.0282,273.0902,0.00011464,1.537e-05,0.0,0 STARLINK-3128,1 49441U 21104AK  23251.41773944  .00001537  00000-0  11464-3 0  9997,2 49441  53.2156 348.9591 0001679  87.0282 273.0902 15.08840191102121,6917.88,95.438,540.906,538.583,0.0
49441.0,STARLINK-3128,PAYLOAD,2023-09-08 13:12:18,15.08841314,0.0001397,53.2173,348.3623,110.9138,249.2004,0.00015213,2.134e-05,0.0,0 STARLINK-3128,1 49441U 21104AK  23251.55021738  .00002134  00000-0  15213-3 0  9999,2 49441  53.2173 348.3623 0001397 110.9138 249.2004 15.08841314101061,6917.876,95.437,540.708,538.775,0.0
49441.0,STARLINK-3128,PAYLOAD,2023-09-08 16:23:04,15.0884432,0.0001385,53.2175,347.7677,112.7717,247.3422,0.00020922,3.044e-05,0.0,0 STARLINK-3128,1 49441U 21104AK  23251.68269620  .00003044  00000-0  20922-3 0  9991,2 49441  53.2175 347.7677 0001385 112.7717 247.3422 15.08844320101080,6917.867,95.437,540.69,538.774,0.0
49441.0,STARLINK-3128,PAYLOAD,2023-09-09 11:27:42,15.08842952,0.0001387,53.2173,344.2007,102.4367,257.6781,0.000202,2.929e-05,0.0,0 STARLINK-3128,1 49441U 21104AK  23252.47757856  .00002929  00000-0  20200-3 0  9992,2 49441  53.2173 344.2007 0001387 102.4367 257.6781 15.08842952102280,6917.871,95.437,540.696,538.777,0.0
49441.0,STARLINK-3128,PAYLOAD,2023-09-09 13:03:05,15.088453,0.0001314,53.2175,343.9048,91.4762,268.6381,0.00023212,3.409e-05,0.0,0 STARLINK-3128,1 49441U 21104AK  23252.54381780  .00003409  00000-0  23212-3 0  9999,2 49441  53.2175 343.9048 0001314  91.4762 268.6381 15.08845300101219,6917.864,95.437,540.638,538.82,0.0
49441.0,STARLINK-3128,PAYLOAD,2023-09-10 09:43:06,15.08836559,0.0001381,53.2174,340.0397,93.345,266.77,8.2721e-06,-1.56e-06,0.0,0 STARLINK-3128,1 49441U 21104AK  23253.40494060 -.00000156  00000-0  82721-5 0  9990,2 49441  53.2174 340.0397 0001381  93.3450 266.7700 15.08836559102426,6917.891,95.438,540.711,538.801,0.0
49441.0,STARLINK-3128,PAYLOAD,2023-09-10 12:53:53,15.08840531,0.0001377,53.2178,339.4436,91.9021,268.2129,4.7751e-05,4.72e-06,0.0,0 STARLINK-3128,1 49441U 21104AK  23253.53741928  .00000472  00000-0  47751-4 0  9995,2 49441  53.2178 339.4436 0001377  91.9021 268.2129 15.08840531101368,6917.879,95.438,540.696,538.791,0.0
49441.0,STARLINK-3128,PAYLOAD,2023-09-11 12:44:40,15.08841037,0.0001392,53.2179,334.986,93.6104,266.5047,8.3287e-05,1.038e-05,0.0,0 STARLINK-3128,1 49441U 21104AK  23254.53102028  .00001038  00000-0  83287-4 0  9991,2 49441  53.2179 334.9860 0001392  93.6104 266.5047 15.08841037101517,6917.877,95.437,540.705,538.779,0.0
49441.0,STARLINK-3128,PAYLOAD,2023-09-11 14:20:03,15.08844094,0.0001436,53.2184,334.688,90.5882,269.5275,0.00010203,1.336e-05,0.0,0 STARLINK-3128,1 49441U 21104AK  23254.59725886  .00001336  00000-0  10203-3 0  9998,2 49441  53.2184 334.6880 0001436  90.5882 269.5275 15.08844094102603,6917.868,95.437,540.726,538.739,0.0
49441.0,STARLINK-3128,PAYLOAD,2023-09-12 11:00:04,15.08839877,0.0001507,53.2178,330.8214,90.2848,269.8317,9.7837e-05,1.269e-05,0.0,0 STARLINK-3128,1 49441U 21104AK  23255.45838513  .00001269  00000-0  97837-4 0  9990,2 49441  53.2178 330.8214 0001507  90.2848 269.8317 15.08839877102730,6917.881,95.438,540.788,538.703,0.0
49441.0,STARLINK-3128,PAYLOAD,2023-09-12 12:35:27,15.088431,0.0001506,53.2179,330.5241,87.9327,272.1838,0.00013151,1.806e-05,0.0,0 STARLINK-3128,1 49441U 21104AK  23255.52462253  .00001806  00000-0  13151-3 0  9995,2 49441  53.2179 330.5241 0001506  87.9327 272.1838 15.08843100101662,6917.871,95.437,540.778,538.694,0.0
49441.0,STARLINK-3128,PAYLOAD,2023-09-12 22:07:45,15.08848888,0.0001529,53.2178,328.7399,109.1444,250.9714,9.7651e-05,1.267e-05,0.0,0 STARLINK-3128,1 49441U 21104AK  23255.92205845  .00001267  00000-0  97651-4 0  9990,2 49441  53.2178 328.7399 0001529 109.1444 250.9714 15.08848888102808,6917.853,95.437,540.776,538.66,0.0
49441.0,STARLINK-3128,PAYLOAD,2023-09-13 12:26:13,15.08859617,0.0001516,53.2176,326.0638,89.0977,271.0189,0.0002918,4.362e-05,0.0,0 STARLINK-3128,1 49441U 21104AK  23256.51821214  .00004362  00000-0  29180-3 0  9990,2 49441  53.2176 326.0638 0001516  89.0977 271.0189 15.08859617101818,6917.82,95.436,540.734,538.637,0.0
49441.0,STARLINK-3128,PAYLOAD,2023-09-13 21:58:33,15.08835805,0.0001944,53.2178,324.2812,73.7199,286.4007,-2.2722e-05,-6.5e-06,0.0,0 STARLINK-3128,1 49441U 21104AK  23256.91566462 -.00000650  00000-0 -22722-4 0  9999,2 49441  53.2178 324.2812 0001944  73.7199 286.4007 15.08835805101873,6917.893,95.438,541.103,538.413,0.0
49441.0,STARLINK-3128,PAYLOAD,2023-09-13 23:33:56,15.0883462,0.0001858,53.216,323.9822,79.9628,280.1574,-4.2333e-05,-9.62e-06,0.0,0 STARLINK-3128,1 49441U 21104AK  23256.98190421 -.00000962  00000-0 -42333-4 0  9990,2 49441  53.2160 323.9822 0001858  79.9628 280.1574 15.08834620102965,6917.897,95.438,541.047,538.476,0.0
49441.0,STARLINK-3128,PAYLOAD,2023-09-14 10:41:39,15.08816928,0.0001621,53.2168,321.9017,75.8868,284.2305,-0.00027285,-4.625e-05,0.0,0 STARLINK-3128,1 49441U 21104AK  23257.44559654 -.00004625  00000-0 -27285-3 0  9997,2 49441  53.2168 321.9017 0001621  75.8868 284.2305 15.08816928103033,6917.951,95.439,540.937,538.695,0.0
49441.0,STARLINK-3128,PAYLOAD,2023-09-14 13:52:25,15.08819599,0.0001629,53.216,321.3059,77.3345,282.7829,-0.00020145,-3.491e-05,0.0,0 STARLINK-3128,1 49441U 21104AK  23257.57807730 -.00003491  00000-0 -20145-3 0  9990,2 49441  53.2160 321.3059 0001629  77.3345 282.7829 15.08819599101972,6917.943,95.439,540.935,538.681,0.0
49441.0,STARLINK-3128,PAYLOAD,2023-09-15 04:10:54,15.08832697,0.0001608,53.2162,318.6295,75.6015,284.5155,0.00037385,5.666e-05,0.0,0 STARLINK-3128,1 49441U 21104AK  23258.17424102  .00005666  00000-0  37385-3 0  9993,2 49441  53.2162 318.6295 0001608  75.6015 284.5155 15.08832697103144,6917.903,95.438,540.88,538.655,0.0
49441.0,STARLINK-3128,PAYLOAD,2023-09-15 10:32:27,15.08848345,0.0001613,53.2162,317.4398,72.431,287.6858,0.0014378,0.00022674,0.0,0 STARLINK-3128,1 49441U 21104AK  23258.43920374  .00022674  00000-0  14378-2 0  9998,2 49441  53.2162 317.4398 0001613  72.4310 287.6858 15.08848345102100,6917.855,95.437,540.836,538.604,0.0
49441.0,STARLINK-3128,PAYLOAD,2023-09-16 10:23:13,15.08865894,0.0001737,53.2163,312.9791,73.1946,286.9237,0.00080232,0.00012513,0.0,0 STARLINK-3128,1 49441U 21104AK  23259.43279458  .00012513  00000-0  80232-3 0  9993,2 49441  53.2163 312.9791 0001737  73.1946 286.9237 15.08865894103335,6917.801,95.436,540.868,538.465,0.0
49441.0,STARLINK-3128,PAYLOAD,2023-09-16 13:33:59,15.08865199,0.0001703,53.2169,312.3832,83.1347,276.9839,0.00067465,0.00010473,0.0,0 STARLINK-3128,1 49441U 21104AK  23259.56527221  .00010473  00000-0  67465-3 0  9997,2 49441  53.2169 312.3832 0001703  83.1347 276.9839 15.08865199102277,6917.803,95.436,540.846,538.49,0.0
49441.0,STARLINK-3128,PAYLOAD,2023-09-17 02:17:04,15.08847266,0.0001551,53.2167,310.0064,71.604,288.5121,3.3515e-05,2.46e-06,0.0,0 STARLINK-3128,1 49441U 21104AK  23260.09519372  .00000246  00000-0  33515-4 0  9992,2 49441  53.2167 310.0064 0001551  71.6040 288.5121 15.08847266103437,6917.858,95.437,540.796,538.65,0.0
49441.0,STARLINK-3128,PAYLOAD,2023-09-17 08:38:37,15.08848009,0.0001605,53.2166,308.8153,84.5653,275.5522,0.00019111,2.755e-05,0.0,0 STARLINK-3128,1 49441U 21104AK  23260.36015452  .00002755  00000-0  19111-3 0  9994,2 49441  53.2166 308.8153 0001605  84.5653 275.5522 15.08848009102394,6917.856,95.437,540.831,538.611,0.0
49441.0,STARLINK-3128,PAYLOAD,2023-09-18 08:29:23,15.08860686,0.000158,53.2163,304.355,81.0133,279.1038,0.00072306,0.00011245,0.0,0 STARLINK-3128,1 49441U 21104AK  23261.35374914  .00011245  00000-0  72306-3 0  9994,2 49441  53.2163 304.3550 0001580  81.0133 279.1038 15.08860686103624,6917.817,95.436,540.775,538.589,0.0
49441.0,STARLINK-3128,PAYLOAD,2023-09-18 19:37:05,15.08859026,0.0001665,53.2159,302.2721,86.9925,273.1258,0.0005335,8.217e-05,0.0,0 STARLINK-3128,1 49441U 21104AK  23261.81742594  .00008217  00000-0  53350-3 0  9991,2 49441  53.2159 302.2721 0001665  86.9925 273.1258 15.08859026102615,6917.822,95.436,540.839,538.535,0.0
49441.0,STARLINK-3128,PAYLOAD,2023-09-19 01:58:37,15.08855914,0.0001613,53.2156,301.0845,83.3629,276.7547,0.00021377,3.117e-05,0.0,0 STARLINK-3128,1 49441U 21104AK  23262.08238356  .00003117  00000-0  21377-3 0  9995,2 49441  53.2156 301.0845 0001613  83.3629 276.7547 15.08855914103737,6917.832,95.437,540.813,538.581,0.0
49441.0,STARLINK-3128,PAYLOAD,2023-09-20 03:24:48,15.08838269,0.0001779,53.2168,296.3273,83.292,276.8275,-0.00013368,-2.415e-05,0.0,0 STARLINK-3128,1 49441U 21104AK  23263.14222774 -.00002415  00000-0 -13368-3 0  9993,2 49441  53.2168 296.3273 0001779  83.2920 276.8275 15.08838269103897,6917.886,95.438,540.981,538.52,0.0
49441.0,STARLINK-3128,PAYLOAD,2023-09-20 11:21:44,15.08831471,0.0001724,53.2162,294.8374,83.3632,276.7556,-0.00020646,-3.572e-05,0.0,0 STARLINK-3128,1 49441U 21104AK  23263.47343437 -.00003572  00000-0 -20646-3 0  9991,2 49441  53.2162 294.8374 0001724  83.3632 276.7556 15.08831471103942,6917.906,95.438,540.964,538.579,0.0
